{
 "generated_at": "2026-06-16T10:08:45Z",
 "sources": [
  {
   "name": "CelesTrak",
   "url": "https://celestrak.org/NORAD/elements/",
   "license": "frei verfügbar; Attribution. Ursprünglich USSPACECOM/Space-Track."
  },
  {
   "name": "GCAT (J. McDowell, planet4589.org)",
   "url": "https://planet4589.org/space/gcat/",
   "license": "CC-BY 4.0"
  }
 ],
 "satellites": [
  {
   "norad": 60419,
   "name": "CAPELLA-13 (ACADIA-3)",
   "intl": "2024-142A",
   "group": "sar",
   "gcat": {
    "class": "B",
    "category": "IMG-R",
    "owner": "CAPSP",
    "state": "US"
   },
   "omm": {
    "OBJECT_NAME": "CAPELLA-13 (ACADIA-3)",
    "OBJECT_ID": "2024-142A",
    "EPOCH": "2026-06-16T00:34:23.346048",
    "MEAN_MOTION": 14.87654034,
    "ECCENTRICITY": 0.0001304,
    "INCLINATION": 53.0053,
    "RA_OF_ASC_NODE": 62.6443,
    "ARG_OF_PERICENTER": 90.034,
    "MEAN_ANOMALY": 270.0789,
    "EPHEMERIS_TYPE": 0,
    "CLASSIFICATION_TYPE": "U",
    "NORAD_CAT_ID": 60419,
    "ELEMENT_SET_NO": 999,
    "REV_AT_EPOCH": 10023,
    "BSTAR": 0.00045078,
    "MEAN_MOTION_DOT": 0.00003907,
    "MEAN_MOTION_DDOT": 0
   }
  },
  {
   "norad": 59444,
   "name": "CAPELLA-14 (ACADIA-4)",
   "intl": "2024-066C",
   "group": "sar",
   "gcat": {
    "class": "B",
    "category": "IMG-R",
    "owner": "CAPSP",
    "state": "US"
   },
   "omm": {
    "OBJECT_NAME": "CAPELLA-14 (ACADIA-4)",
    "OBJECT_ID": "2024-066C",
    "EPOCH": "2026-06-13T21:07:12.144288",
    "MEAN_MOTION": 15.13083686,
    "ECCENTRICITY": 0.00071958,
    "INCLINATION": 45.6162,
    "RA_OF_ASC_NODE": 272.5254,
    "ARG_OF_PERICENTER": 295.5654,
    "MEAN_ANOMALY": 64.4489,
    "EPHEMERIS_TYPE": 0,
    "CLASSIFICATION_TYPE": "U",
    "NORAD_CAT_ID": 59444,
    "ELEMENT_SET_NO": 999,
    "REV_AT_EPOCH": 11198,
    "BSTAR": 0.00092534868,
    "MEAN_MOTION_DOT": 0.00016423,
    "MEAN_MOTION_DDOT": 0
   }
  },
  {
   "norad": 60544,
   "name": "CAPELLA-15 (ACADIA-5)",
   "intl": "2024-149CE",
   "group": "sar",
   "gcat": {
    "class": "B",
    "category": "IMG-R",
    "owner": "CAPSP",
    "state": "US"
   },
   "omm": {
    "OBJECT_NAME": "CAPELLA-15 (ACADIA-5)",
    "OBJECT_ID": "2024-149CE",
    "EPOCH": "2026-06-16T04:23:08.139840",
    "MEAN_MOTION": 14.92389873,
    "ECCENTRICITY": 0.0004689,
    "INCLINATION": 97.6773,
    "RA_OF_ASC_NODE": 240.111,
    "ARG_OF_PERICENTER": 80.7737,
    "MEAN_ANOMALY": 279.4012,
    "EPHEMERIS_TYPE": 0,
    "CLASSIFICATION_TYPE": "U",
    "NORAD_CAT_ID": 60544,
    "ELEMENT_SET_NO": 999,
    "REV_AT_EPOCH": 9970,
    "BSTAR": 0.00027011,
    "MEAN_MOTION_DOT": 0.0000271,
    "MEAN_MOTION_DDOT": 0
   }
  },
  {
   "norad": 65318,
   "name": "CAPELLA-16 (ACADIA-6)",
   "intl": "2025-188D",
   "group": "sar",
   "gcat": {
    "class": "B",
    "category": "IMG-R",
    "owner": "CAPSP",
    "state": "US"
   },
   "omm": {
    "OBJECT_NAME": "CAPELLA-16 (ACADIA-6)",
    "OBJECT_ID": "2025-188D",
    "EPOCH": "2026-06-16T03:38:17.755296",
    "MEAN_MOTION": 14.93726458,
    "ECCENTRICITY": 0.0003383,
    "INCLINATION": 97.7382,
    "RA_OF_ASC_NODE": 242.3201,
    "ARG_OF_PERICENTER": 219.8129,
    "MEAN_ANOMALY": 140.2843,
    "EPHEMERIS_TYPE": 0,
    "CLASSIFICATION_TYPE": "U",
    "NORAD_CAT_ID": 65318,
    "ELEMENT_SET_NO": 999,
    "REV_AT_EPOCH": 4376,
    "BSTAR": 0.00054874,
    "MEAN_MOTION_DOT": 0.00005755,
    "MEAN_MOTION_DDOT": 0
   }
  },
  {
   "norad": 64583,
   "name": "CAPELLA-17 (ACADIA-7)",
   "intl": "2025-135BH",
   "group": "sar",
   "gcat": {
    "class": "B",
    "category": "IMG-R",
    "owner": "CAPSP",
    "state": "US"
   },
   "omm": {
    "OBJECT_NAME": "CAPELLA-17 (ACADIA-7)",
    "OBJECT_ID": "2025-135BH",
    "EPOCH": "2026-06-15T07:48:11.313216",
    "MEAN_MOTION": 14.91474486,
    "ECCENTRICITY": 0.00050507,
    "INCLINATION": 97.7679,
    "RA_OF_ASC_NODE": 279.9783,
    "ARG_OF_PERICENTER": 16.7463,
    "MEAN_ANOMALY": 343.3922,
    "EPHEMERIS_TYPE": 0,
    "CLASSIFICATION_TYPE": "U",
    "NORAD_CAT_ID": 64583,
    "ELEMENT_SET_NO": 999,
    "REV_AT_EPOCH": 5357,
    "BSTAR": 0.00058729383,
    "MEAN_MOTION_DOT": 0.00005823,
    "MEAN_MOTION_DDOT": 0
   }
  },
  {
   "norad": 67385,
   "name": "CAPELLA-18 (ACADIA-8)",
   "intl": "2026-004Y",
   "group": "sar",
   "gcat": {
    "class": "B",
    "category": "IMG-R",
    "owner": "CAPSP",
    "state": "US"
   },
   "omm": {
    "OBJECT_NAME": "CAPELLA-18 (ACADIA-8)",
    "OBJECT_ID": "2026-004Y",
    "EPOCH": "2026-06-15T23:56:16.185120",
    "MEAN_MOTION": 14.86643631,
    "ECCENTRICITY": 0.0001448,
    "INCLINATION": 97.7997,
    "RA_OF_ASC_NODE": 165.5467,
    "ARG_OF_PERICENTER": 90.9041,
    "MEAN_ANOMALY": 269.234,
    "EPHEMERIS_TYPE": 0,
    "CLASSIFICATION_TYPE": "U",
    "NORAD_CAT_ID": 67385,
    "ELEMENT_SET_NO": 999,
    "REV_AT_EPOCH": 2310,
    "BSTAR": 0.00040048,
    "MEAN_MOTION_DOT": 0.00003502,
    "MEAN_MOTION_DDOT": 0
   }
  },
  {
   "norad": 67384,
   "name": "CAPELLA-19 (ACADIA-9)",
   "intl": "2026-004X",
   "group": "sar",
   "gcat": {
    "class": "B",
    "category": "IMG-R",
    "owner": "CAPSP",
    "state": "US"
   },
   "omm": {
    "OBJECT_NAME": "CAPELLA-19 (ACADIA-9)",
    "OBJECT_ID": "2026-004X",
    "EPOCH": "2026-06-15T23:41:44.436768",
    "MEAN_MOTION": 14.86662268,
    "ECCENTRICITY": 0.0001447,
    "INCLINATION": 97.7988,
    "RA_OF_ASC_NODE": 165.3866,
    "ARG_OF_PERICENTER": 94.393,
    "MEAN_ANOMALY": 265.7451,
    "EPHEMERIS_TYPE": 0,
    "CLASSIFICATION_TYPE": "U",
    "NORAD_CAT_ID": 67384,
    "ELEMENT_SET_NO": 999,
    "REV_AT_EPOCH": 2309,
    "BSTAR": 0.0003891,
    "MEAN_MOTION_DOT": 0.00003403,
    "MEAN_MOTION_DDOT": 0
   }
  },
  {
   "norad": 68485,
   "name": "CAPELLA-20 (ACADIA-10)",
   "intl": "2026-067BX",
   "group": "sar",
   "gcat": {
    "class": "B",
    "category": "IMG-R",
    "owner": "CAPSP",
    "state": "US"
   },
   "omm": {
    "OBJECT_NAME": "CAPELLA-20 (ACADIA-10)",
    "OBJECT_ID": "2026-067BX",
    "EPOCH": "2026-06-15T21:16:37.079328",
    "MEAN_MOTION": 14.92575964,
    "ECCENTRICITY": 0.0001102,
    "INCLINATION": 97.7574,
    "RA_OF_ASC_NODE": 125.1942,
    "ARG_OF_PERICENTER": 46.8864,
    "MEAN_ANOMALY": 313.2447,
    "EPHEMERIS_TYPE": 0,
    "CLASSIFICATION_TYPE": "U",
    "NORAD_CAT_ID": 68485,
    "ELEMENT_SET_NO": 999,
    "REV_AT_EPOCH": 1153,
    "BSTAR": 0.00057436,
    "MEAN_MOTION_DOT": 0.00005853,
    "MEAN_MOTION_DDOT": 0
   }
  },
  {
   "norad": 40718,
   "name": "CARBONITE 1 (CBNT-1)",
   "intl": "2015-032D",
   "group": "resource",
   "gcat": {
    "class": "B",
    "category": "IMG",
    "owner": "SSTLA",
    "state": "UK"
   },
   "omm": {
    "OBJECT_NAME": "CARBONITE 1 (CBNT-1)",
    "OBJECT_ID": "2015-032D",
    "EPOCH": "2026-06-16T04:05:59.489952",
    "MEAN_MOTION": 14.83582593,
    "ECCENTRICITY": 0.0013258,
    "INCLINATION": 97.6497,
    "RA_OF_ASC_NODE": 345.2794,
    "ARG_OF_PERICENTER": 301.6767,
    "MEAN_ANOMALY": 58.3154,
    "EPHEMERIS_TYPE": 0,
    "CLASSIFICATION_TYPE": "U",
    "NORAD_CAT_ID": 40718,
    "ELEMENT_SET_NO": 999,
    "REV_AT_EPOCH": 58919,
    "BSTAR": 0.00012591,
    "MEAN_MOTION_DOT": 0.00000988,
    "MEAN_MOTION_DDOT": 0
   }
  },
  {
   "norad": 67397,
   "name": "CARBSAR",
   "intl": "2026-004AL",
   "group": "sar",
   "gcat": {
    "class": "B",
    "category": "IMG-R",
    "owner": "SSTL",
    "state": "UK"
   },
   "omm": {
    "OBJECT_NAME": "CARBSAR",
    "OBJECT_ID": "2026-004AL",
    "EPOCH": "2026-06-15T23:46:56.585280",
    "MEAN_MOTION": 15.19570074,
    "ECCENTRICITY": 0.0005163,
    "INCLINATION": 97.4532,
    "RA_OF_ASC_NODE": 166.1758,
    "ARG_OF_PERICENTER": 1.9274,
    "MEAN_ANOMALY": 358.198,
    "EPHEMERIS_TYPE": 0,
    "CLASSIFICATION_TYPE": "U",
    "NORAD_CAT_ID": 67397,
    "ELEMENT_SET_NO": 999,
    "REV_AT_EPOCH": 2358,
    "BSTAR": 0.00024572,
    "MEAN_MOTION_DOT": 0.0000516,
    "MEAN_MOTION_DDOT": 0
   }
  },
  {
   "norad": 32783,
   "name": "CARTOSAT-2A",
   "intl": "2008-021A",
   "group": "resource",
   "gcat": {
    "class": "D",
    "category": "IMG",
    "owner": "ISRO",
    "state": "IN"
   },
   "omm": {
    "OBJECT_NAME": "CARTOSAT-2A",
    "OBJECT_ID": "2008-021A",
    "EPOCH": "2026-06-16T04:00:42.249024",
    "MEAN_MOTION": 14.7923853,
    "ECCENTRICITY": 0.0013145,
    "INCLINATION": 97.7634,
    "RA_OF_ASC_NODE": 215.9105,
    "ARG_OF_PERICENTER": 111.8912,
    "MEAN_ANOMALY": 248.3699,
    "EPHEMERIS_TYPE": 0,
    "CLASSIFICATION_TYPE": "U",
    "NORAD_CAT_ID": 32783,
    "ELEMENT_SET_NO": 999,
    "REV_AT_EPOCH": 97865,
    "BSTAR": 0.00012752,
    "MEAN_MOTION_DOT": 0.00000898,
    "MEAN_MOTION_DDOT": 0
   }
  },
  {
   "norad": 36795,
   "name": "CARTOSAT-2B",
   "intl": "2010-035A",
   "group": "resource",
   "gcat": {
    "class": "D",
    "category": "IMG",
    "owner": "ISRO",
    "state": "IN"
   },
   "omm": {
    "OBJECT_NAME": "CARTOSAT-2B",
    "OBJECT_ID": "2010-035A",
    "EPOCH": "2026-06-16T04:32:35.355840",
    "MEAN_MOTION": 14.7866147,
    "ECCENTRICITY": 0.001111,
    "INCLINATION": 97.9954,
    "RA_OF_ASC_NODE": 217.7454,
    "ARG_OF_PERICENTER": 186.9575,
    "MEAN_ANOMALY": 173.1483,
    "EPHEMERIS_TYPE": 0,
    "CLASSIFICATION_TYPE": "U",
    "NORAD_CAT_ID": 36795,
    "ELEMENT_SET_NO": 999,
    "REV_AT_EPOCH": 85970,
    "BSTAR": 0.00010664,
    "MEAN_MOTION_DOT": 0.0000073,
    "MEAN_MOTION_DDOT": 0
   }
  }
 ]
}
